[{"OBJECT_NAME":"HAIYANG-3A","OBJECT_ID":"2023-176A","EPOCH":"2026-03-09T22:59:35.740320","MEAN_MOTION":14.34139944,"ECCENTRICITY":0.00087972,"INCLINATION":98.552,"RA_OF_ASC_NODE":148.0351,"ARG_OF_PERICENTER":324.745,"MEAN_ANOMALY":35.3152,"EPHEMERIS_TYPE":0,"CLASSIFICATION_TYPE":"U","NORAD_CAT_ID":58349,"ELEMENT_SET_NO":999,"REV_AT_EPOCH":12109,"BSTAR":7.6477628e-5,"MEAN_MOTION_DOT":1.7e-6,"MEAN_MOTION_DDOT":0},{"OBJECT_NAME":"FENGYUN 1C DEB","OBJECT_ID":"1999-025BGJ","EPOCH":"2026-03-07T16:00:26.445600","MEAN_MOTION":14.29457369,"ECCENTRICITY":0.0030693,"INCLINATION":99.4011,"RA_OF_ASC_NODE":138.5053,"ARG_OF_PERICENTER":175.1764,"MEAN_ANOMALY":340.1215,"EPHEMERIS_TYPE":0,"CLASSIFICATION_TYPE":"U","NORAD_CAT_ID":31088,"ELEMENT_SET_NO":999,"REV_AT_EPOCH":97762,"BSTAR":0.0019234,"MEAN_MOTION_DOT":4.887e-5,"MEAN_MOTION_DDOT":0}]
